STARLINK-32384          
1 62146U 24224H   26068.26429507  .00032344  00000+0  11798-2 0  9993
2 62146  42.9979 160.6213 0001056 249.8965 110.1773 15.27577303 72419
FLOCK 4G-6              
1 62660U 25009BD  26068.71061311  .00012261  00000+0  45910-3 0  9991
2 62660  97.3980 150.7943 0002380 348.2637  11.8546 15.27432125121307
