[{"OBJECT_NAME":"STARLINK-32384","OBJECT_ID":"2024-224H","EPOCH":"2026-03-09T06:20:35.094048","MEAN_MOTION":15.27577303,"ECCENTRICITY":0.00010569,"INCLINATION":42.9979,"RA_OF_ASC_NODE":160.6213,"ARG_OF_PERICENTER":249.8965,"MEAN_ANOMALY":110.1773,"EPHEMERIS_TYPE":0,"CLASSIFICATION_TYPE":"U","NORAD_CAT_ID":62146,"ELEMENT_SET_NO":999,"REV_AT_EPOCH":7241,"BSTAR":0.0011798157,"MEAN_MOTION_DOT":0.00032344,"MEAN_MOTION_DDOT":0},{"OBJECT_NAME":"FLOCK 4G-6","OBJECT_ID":"2025-009BD","EPOCH":"2026-03-09T17:03:16.973568","MEAN_MOTION":15.27432125,"ECCENTRICITY":0.00023795,"INCLINATION":97.398,"RA_OF_ASC_NODE":150.7943,"ARG_OF_PERICENTER":348.2637,"MEAN_ANOMALY":11.8546,"EPHEMERIS_TYPE":0,"CLASSIFICATION_TYPE":"U","NORAD_CAT_ID":62660,"ELEMENT_SET_NO":999,"REV_AT_EPOCH":12130,"BSTAR":0.00045909501,"MEAN_MOTION_DOT":0.00012261,"MEAN_MOTION_DDOT":0}]
